OBJECT_NAME,OBJECT_ID,EPOCH,MEAN_MOTION,ECCENTRICITY,INCLINATION,RA_OF_ASC_NODE,ARG_OF_PERICENTER,MEAN_ANOMALY,EPHEMERIS_TYPE,CLASSIFICATION_TYPE,NORAD_CAT_ID,ELEMENT_SET_NO,REV_AT_EPOCH,BSTAR,MEAN_MOTION_DOT,MEAN_MOTION_DDOT
BEIDOU-2 G8 (C01),2019-027A,2026-06-04T03:59:01.936896,1.00276022,.0010765,1.6255,74.4913,284.2571,98.0941,0,U,44231,999,2595,0,-.235E-5,0
COSMOS 2534 (758),2019-030A,2026-06-03T15:05:56.889888,2.13102470,.0013144,64.3676,193.0731,275.2936,262.5197,0,U,44299,999,5463,0,.66E-6,0
BEIDOU-3 IGSO-2 (C39),2019-035A,2026-06-03T14:39:33.810336,1.00271103,.0039672,55.2443,158.9810,216.0015,216.9100,0,U,44337,999,2553,0,-.71E-6,0
GPS BIII-2  (PRN 18),2019-056A,2026-06-02T10:44:11.779584,2.00569922,.006123,55.6403,331.7284,197.3681,346.8768,0,U,44506,999,4977,0,-.81E-6,0
BEIDOU-3 M24 (C46),2019-061A,2026-06-03T19:38:48.498432,1.86229258,.0008298,54.3956,183.1788,359.6968,0.3644,0,U,44542,999,4554,0,.68E-6,0
BEIDOU-3 M23 (C45),2019-061B,2026-06-03T16:24:46.065600,1.86227422,.0005545,54.3944,183.1515,339.9978,201.4019,0,U,44543,999,4554,0,.68E-6,0
EUTELSAT 5 WEST B (EGNOS/PRN 121),2019-067A,2026-06-04T03:16:21.028800,1.00272085,.0003381,0.0658,337.5387,96.1475,222.9953,0,U,44624,999,2430,0,-.3E-6,0
BEIDOU-3 IGSO-3 (C40),2019-073A,2026-05-16T19:27:04.075776,1.00246251,.0042953,54.8566,281.2355,189.4588,170.3676,0,U,44709,999,2414,0,-.217E-5,0
BEIDOU-3 M22 (C44),2019-078A,2026-05-31T23:21:41.584608,1.86227466,.00067997,53.9515,300.3973,49.8773,310.1558,0,U,44793,999,4434,0,-.79E-6,0
BEIDOU-3 M21 (C43),2019-078B,2026-06-01T02:43:14.443968,1.86227902,.00046594,53.9245,300.3540,48.1106,311.9031,0,U,44794,999,4435,0,-.78E-6,0
COSMOS 2544 (759),2019-088A,2026-06-03T10:05:55.825728,2.13102136,.00136967,65.5590,74.1895,260.0855,99.7743,0,U,44850,999,5042,0,-.13E-6,0
BEIDOU-3 M19 (C41),2019-090A,2026-06-02T04:19:35.347872,1.86231755,.00183509,56.5459,63.2868,297.3172,255.2065,0,U,44864,999,4395,0,-.55E-6,0
BEIDOU-3 M20 (C42),2019-090B,2026-06-01T09:40:27.344064,1.86231789,.00162753,56.5472,63.3464,310.6292,170.4314,0,U,44865,999,4392,0,-.62E-6,0
BEIDOU-3 G2 (C60),2020-017A,2026-06-04T05:05:38.687712,1.00270995,.0002877,2.8382,47.1563,24.6448,337.2914,0,U,45344,999,2313,0,-.129E-5,0
COSMOS 2545 (760),2020-018A,2026-06-03T03:31:05.351808,2.13102718,.0007797,64.3637,312.9119,231.7288,128.1886,0,U,45358,999,4836,0,-.45E-6,0
BEIDOU-3 G3 (C61),2020-040A,2026-06-04T02:06:36.002880,1.00274764,.0003085,2.4155,67.4219,335.3952,351.9314,0,U,45807,999,2193,0,-.342E-5,0
GPS BIII-3  (PRN 23),2020-041A,2026-06-03T12:31:59.356128,2.00559276,.00633821,56.6608,29.4739,204.6456,334.6947,0,U,45854,999,4376,0,-.74E-6,0
GALAXY 30 (WAAS/PRN 135),2020-056C,2026-06-03T23:16:48.245376,1.00272060,.0002457,0.0126,35.0814,36.0547,45.4718,0,U,46114,999,2116,0,.49E-6,0
COSMOS 2547 (705K),2020-075A,2026-06-01T11:00:56.634048,2.13100326,.00091303,64.5982,193.0008,239.1969,120.7967,0,U,46805,999,4357,0,.73E-6,0
GPS BIII-4  (PRN 14),2020-078A,2026-06-03T10:00:37.783872,2.00565038,.00729168,53.9816,211.3373,206.8383,232.4954,0,U,46826,999,4123,0,.4E-6,0
GPS BIII-5  (PRN 11),2021-054A,2026-06-03T13:08:10.715136,2.00570190,.00249112,55.1814,333.0080,228.6034,130.8970,0,U,48859,999,3647,0,-.77E-6,0
QZS-1R (QZSS/PRN 196),2021-096A,2026-06-03T15:55:14.316096,1.00260981,.07540746,37.4347,79.7838,271.5206,274.3869,0,U,49336,999,1687,0,-.252E-5,0
GSAT0223 (GALILEO 27),2021-116A,2026-06-01T10:49:10.493760,1.70476346,.00010084,57.1649,342.0998,179.2401,2.8148,0,U,49809,999,2791,0,-.8E-6,0
GSAT0224 (GALILEO 28),2021-116B,2026-06-01T20:23:41.337600,1.70476406,.0000821,57.1667,342.0878,134.5472,44.9862,0,U,49810,999,2794,0,-.79E-6,0
COSMOS 2557 (706K),2022-075A,2026-06-02T13:29:06.303264,2.13102309,.00101406,64.3077,315.0006,276.1929,83.6791,0,U,52984,999,3040,0,-.5E-6,0
COSMOS 2559 (707K),2022-130A,2026-05-31T23:22:06.833280,2.13101759,.00122204,64.2818,315.1401,176.8765,183.1177,0,U,54031,999,2834,0,-.61E-6,0
COSMOS 2564 (761),2022-161A,2026-06-03T03:55:12.944928,2.13102101,.00119921,64.7404,193.1773,223.9964,135.9862,0,U,54377,999,2733,0,.67E-6,0
GPS BIII-6  (PRN 28),2023-009A,2026-06-03T17:51:20.215008,2.00572547,.00061737,55.1213,149.0473,316.5044,223.0998,0,U,55268,999,2497,0,.65E-6,0
BEIDOU-3 G4 (C62),2023-066A,2026-06-04T03:57:39.569184,1.00268888,.0004392,0.5024,328.1274,167.7112,316.2211,0,U,56564,999,1126,0,-.27E-5,0
NVS-01 (IRNSS-1J),2023-076A,2026-06-04T00:29:22.072704,1.00272316,.0002875,2.1975,244.9470,44.2586,100.2095,0,U,56759,999,1098,0,-.323E-5,0
COSMOS 2569 (703K),2023-114A,2026-06-02T05:41:30.808032,2.13103818,.00112352,65.2941,73.1245,296.7139,63.1811,0,U,57517,999,2194,0,-.24E-6,0
